[
  {
    "OBJECT_NAME": "STARLINK-33643",
    "OBJECT_ID": "25063U",
    "EPOCH": "2025-11-11T05:31:34.291200",
    "MEAN_MOTION": 15.30190192,
    "ECCENTRICITY": 0.0001726,
    "INCLINATION": 53.1581,
    "RA_OF_ASC_NODE": 242.6336,
    "ARG_OF_PERICENTER": 103.2417,
    "MEAN_ANOMALY": 256.8777,
    "EPHEMERIS_TYPE": 0,
    "CLASSIFICATION_TYPE": "U",
    "NORAD_CAT_ID": 63381,
    "ELEMENT_SET_NO": 999,
    "REV_AT_EPOCH": 3662,
    "BSTAR": 0.0018349,
    "MEAN_MOTION_DOT": 0.00054369,
    "MEAN_MOTION_DDOT": 0.0,
    "TLE_LINE1": "1 63381U 25063U   25315.23025800  .00054369  00000+0  18349-2 0  9996",
    "TLE_LINE2": "2 63381  53.1581 242.6336 0001726 103.2417 256.8777 15.30190192 36626",
    "COMMENT": "Grouped by shell and plane from TLE"
  },
  {
    "OBJECT_NAME": "STARLINK-33633",
    "OBJECT_ID": "25063V",
    "EPOCH": "2025-11-11T04:19:53.630112",
    "MEAN_MOTION": 15.32984703,
    "ECCENTRICITY": 0.0001527,
    "INCLINATION": 53.1613,
    "RA_OF_ASC_NODE": 240.1951,
    "ARG_OF_PERICENTER": 116.7402,
    "MEAN_ANOMALY": 243.3756,
    "EPHEMERIS_TYPE": 0,
    "CLASSIFICATION_TYPE": "U",
    "NORAD_CAT_ID": 63382,
    "ELEMENT_SET_NO": 999,
    "REV_AT_EPOCH": 3660,
    "BSTAR": 0.0019959,
    "MEAN_MOTION_DOT": 0.00064672,
    "MEAN_MOTION_DDOT": 0.0,
    "TLE_LINE1": "1 63382U 25063V   25315.18048183  .00064672  00000+0  19959-2 0  9996",
    "TLE_LINE2": "2 63382  53.1613 240.1951 0001527 116.7402 243.3756 15.32984703 36608",
    "COMMENT": "Grouped by shell and plane from TLE"
  },
  {
    "OBJECT_NAME": "STARLINK-33658",
    "OBJECT_ID": "25063X",
    "EPOCH": "2025-11-11T04:24:49.919904",
    "MEAN_MOTION": 15.30207927,
    "ECCENTRICITY": 0.0001295,
    "INCLINATION": 53.1598,
    "RA_OF_ASC_NODE": 243.0542,
    "ARG_OF_PERICENTER": 125.4917,
    "MEAN_ANOMALY": 234.6205,
    "EPHEMERIS_TYPE": 0,
    "CLASSIFICATION_TYPE": "U",
    "NORAD_CAT_ID": 63384,
    "ELEMENT_SET_NO": 999,
    "REV_AT_EPOCH": 3661,
    "BSTAR": 0.0013020000000000002,
    "MEAN_MOTION_DOT": 0.0003841,
    "MEAN_MOTION_DDOT": 0.0,
    "TLE_LINE1": "1 63384U 25063X   25315.18391111  .00038410  00000+0  13020-2 0  9994",
    "TLE_LINE2": "2 63384  53.1598 243.0542 0001295 125.4917 234.6205 15.30207927 36617",
    "COMMENT": "Grouped by shell and plane from TLE"
  },
  {
    "OBJECT_NAME": "STARLINK-33533",
    "OBJECT_ID": "25063AA",
    "EPOCH": "2025-11-11T04:49:44.669280",
    "MEAN_MOTION": 15.30219164,
    "ECCENTRICITY": 0.0001146,
    "INCLINATION": 53.1604,
    "RA_OF_ASC_NODE": 240.3228,
    "ARG_OF_PERICENTER": 95.842,
    "MEAN_ANOMALY": 264.2711,
    "EPHEMERIS_TYPE": 0,
    "CLASSIFICATION_TYPE": "U",
    "NORAD_CAT_ID": 63387,
    "ELEMENT_SET_NO": 999,
    "REV_AT_EPOCH": 3660,
    "BSTAR": 0.0017425,
    "MEAN_MOTION_DOT": 0.00051639,
    "MEAN_MOTION_DDOT": 0.0,
    "TLE_LINE1": "1 63387U 25063AA  25315.20121145  .00051639  00000+0  17425-2 0  9999",
    "TLE_LINE2": "2 63387  53.1604 240.3228 0001146  95.8420 264.2711 15.30219164 36609",
    "COMMENT": "Grouped by shell and plane from TLE"
  },
  {
    "OBJECT_NAME": "STARLINK-33629",
    "OBJECT_ID": "25063AB",
    "EPOCH": "2025-11-11T05:03:25.206624",
    "MEAN_MOTION": 15.30215175,
    "ECCENTRICITY": 0.0001259,
    "INCLINATION": 53.1585,
    "RA_OF_ASC_NODE": 240.3803,
    "ARG_OF_PERICENTER": 83.9865,
    "MEAN_ANOMALY": 276.1279,
    "EPHEMERIS_TYPE": 0,
    "CLASSIFICATION_TYPE": "U",
    "NORAD_CAT_ID": 63388,
    "ELEMENT_SET_NO": 999,
    "REV_AT_EPOCH": 3665,
    "BSTAR": 0.001492,
    "MEAN_MOTION_DOT": 0.00044114,
    "MEAN_MOTION_DDOT": 0.0,
    "TLE_LINE1": "1 63388U 25063AB  25315.21070841  .00044114  00000+0  14920-2 0  9994",
    "TLE_LINE2": "2 63388  53.1585 240.3803 0001259  83.9865 276.1279 15.30215175 36657",
    "COMMENT": "Grouped by shell and plane from TLE"
  },
  {
    "OBJECT_NAME": "STARLINK-33656",
    "OBJECT_ID": "25063AC",
    "EPOCH": "2025-11-11T04:11:09.526848",
    "MEAN_MOTION": 15.3021002,
    "ECCENTRICITY": 0.000104,
    "INCLINATION": 53.1585,
    "RA_OF_ASC_NODE": 242.9965,
    "ARG_OF_PERICENTER": 107.8051,
    "MEAN_ANOMALY": 252.3063,
    "EPHEMERIS_TYPE": 0,
    "CLASSIFICATION_TYPE": "U",
    "NORAD_CAT_ID": 63389,
    "ELEMENT_SET_NO": 999,
    "REV_AT_EPOCH": 3661,
    "BSTAR": 0.00088783,
    "MEAN_MOTION_DOT": 0.00026036,
    "MEAN_MOTION_DDOT": 0.0,
    "TLE_LINE1": "1 63389U 25063AC  25315.17441582  .00026036  00000+0  88783-3 0  9996",
    "TLE_LINE2": "2 63389  53.1585 242.9965 0001040 107.8051 252.3063 15.30210020 36613",
    "COMMENT": "Grouped by shell and plane from TLE"
  }
]